{
  "type": "FeatureCollection",
  "features": [
    {
      "type": "Feature",
      "properties": {
        "WARD_ID": 1,
        "MAP_LABEL": "WARD 1"
      },
      "geometry": {
        "type": "Polygon",
        "coordinates": [
          [
            [
              -80.367401739473621,
              43.378006469419724
            ],
            [
              -80.367820885621555,
              43.37905018791281
            ],
            [
              -80.368267264434877,
              43.380161677907019
            ],
            [
              -80.368627843707799,
              43.381038710042937
            ],
            [
              -80.368988432945372,
              43.38191574104259
            ],
            [
              -80.369349032742292,
              43.382792770765064
            ],
            [
              -80.369427398926646,
              43.382917805113877
            ],
            [
              -80.369429648064212,
              43.382917657162558
            ],
            [
              -80.371342592217502,
              43.3830330161164
            ],
            [
              -80.374385151768976,
              43.383143453364575
            ],
            [
              -80.375974257274748,
              43.387119701869871
            ],
            [
              -80.374823392234518,
              43.387462864700659
            ],
            [
              -80.373855480901597,
              43.387457569377361
            ],
            [
              -80.372821032700642,
              43.387199776365527
            ],
            [
              -80.371648321591806,
              43.386941214473509
            ],
            [
              -80.369783742218999,
              43.386729254828964
            ],
            [
              -80.367642110740064,
              43.386566156965664
            ],
            [
              -80.367022066992121,
              43.386417936445525
            ],
            [
              -80.366951637342808,
              43.386805517934533
            ],
            [
              -80.366959824745024,
              43.387154666163504
            ],
            [
              -80.366988081337965,
              43.387316390044838
            ],
            [
              -80.367035954024161,
              43.387446555618311
            ],
            [
              -80.367279074966163,
              43.387819510090551
            ],
            [
              -80.367293883346278,
              43.387848218095968
            ],
            [
              -80.367310055456187,
              43.387876531970477
            ],
            [
              -80.367327572196842,
              43.38790441731873
            ],
            [
              -80.367346411305533,
              43.387931840015838
            ],
            [
              -80.367366550408619,
              43.387958767088968
            ],
            [
              -80.367387965156993,
              43.387985165554248
            ],
            [
              -80.367410629120485,
              43.388011003064626
            ],
            [
              -80.367434515065895,
              43.388036248493215
            ],
            [
              -80.367459593486004,
              43.388060870916583
            ],
            [
              -80.3674858343675,
              43.388084840561142
            ],
            [
              -80.367513205517341,
              43.388108128289545
            ],
            [
              -80.36754167345228,
              43.388130705533563
            ],
            [
              -80.367571203984824,
              43.38815254494569
            ],
            [
              -80.367601760646579,
              43.388173620030294
            ],
            [
              -80.367633306862032,
              43.388193905083497
            ],
            [
              -80.367665803971576,
              43.38821337532643
            ],
            [
              -80.367699212117515,
              43.388232007198219
            ],
            [
              -80.367733491333425,
              43.388249778073863
            ],
            [
              -80.367768599275578,
              43.388266665963606
            ],
            [
              -80.367804493678605,
              43.388282650823086
            ],
            [
              -80.367841130196837,
              43.388297713172818
            ],
            [
              -80.367878465169099,
              43.38831183418543
            ],
            [
              -80.367916452542701,
              43.388324997037415
            ],
            [
              -80.36797155822255,
              43.388344050726154
            ],
            [
              -80.368025765547557,
              43.3883644294989
            ],
            [
              -80.368079013910091,
              43.388386110762852
            ],
            [
              -80.368131245486452,
              43.388409070139765
            ],
            [
              -80.368182401665564,
              43.388433282959006
            ],
            [
              -80.368232427023472,
              43.388458721974338
            ],
            [
              -80.368281264956721,
              43.388485359356721
            ],
            [
              -80.368328862833962,
              43.388513165210149
            ],
            [
              -80.368375167332886,
              43.388542109562749
            ],
            [
              -80.368420127623978,
              43.38857216015132
            ],
            [
              -80.368463693682543,
              43.388603283276431
            ],
            [
              -80.368505817854668,
              43.388635445179737
            ],
            [
              -80.368546453295011,
              43.388668610306425
            ],
            [
              -80.368585555243953,
              43.388702741960685
            ],
            [
              -80.368623080241278,
              43.388737801941069
            ],
            [
              -80.368658987292662,
              43.388773752347937
            ],
            [
              -80.368693236713568,
              43.388810552767595
            ],
            [
              -80.368725789903436,
              43.388848163008319
            ],
            [
              -80.369736064955049,
              43.389858042117496
            ],
            [
              -80.369738205847597,
              43.389860948831235
            ],
            [
              -80.369897679893526,
              43.390086934162952
            ],
            [
              -80.370046260505561,
              43.390316834931184
            ],
            [
              -80.370183767748287,
              43.390550371191111
            ],
            [
              -80.370310033955292,
              43.390787260109676
            ],
            [
              -80.370424906028546,
              43.391027213384795
            ],
            [
              -80.370528243730817,
              43.391269940045021
            ],
            [
              -80.370619922170647,
              43.391515145022375
            ],
            [
              -80.370699829219404,
              43.391762530650674
            ],
            [
              -80.371014606294565,
              43.39211577501915
            ],
            [
              -80.371139914931064,
              43.392315433484725
            ],
            [
              -80.37114318156145,
              43.39234491946133
            ],
            [
              -80.371145059859884,
              43.392374469551356
            ],
            [
              -80.371145547416873,
              43.392404049092306
            ],
            [
              -80.371144643796214,
              43.39243362364855
            ],
            [
              -80.371142349752219,
              43.392463158286745
            ],
            [
              -80.371138668409046,
              43.392492618158428
            ],
            [
              -80.37113360377991,
              43.392521968420155
            ],
            [
              -80.371127161943349,
              43.39255117510411
            ],
            [
              -80.371119350172236,
              43.392580203384604
            ],
            [
              -80.371110178202898,
              43.392609019025727
            ],
            [
              -80.371099656553014,
              43.392637588660257
            ],
            [
              -80.371087797625975,
              43.392665878066865
            ],
            [
              -80.371074615094528,
              43.392693854471887
            ],
            [
              -80.371060125106752,
              43.392721484538924
            ],
            [
              -80.371044344292912,
              43.392748736086801
            ],
            [
              -80.371027290962459,
              43.392775576943528
            ],
            [
              -80.371008985295845,
              43.392801975523653
            ],
            [
              -80.370989449442362,
              43.392827900900862
            ],
            [
              -80.370968705646618,
              43.392853322509531
            ],
            [
              -80.370946778521599,
              43.392878210013095
            ],
            [
              -80.370923694338842,
              43.392902535101229
            ],
            [
              -80.370883035259794,
              43.392945399306534
            ],
            [
              -80.370844443703405,
              43.392989268104827
            ],
            [
              -80.370807965659935,
              43.393034088516529
            ],
            [
              -80.370773645850235,
              43.393079806186371
            ],
            [
              -80.370741525347526,
              43.393126366090634
            ],
            [
              -80.370711642867533,
              43.393173711967869
            ],
            [
              -80.37068403466894,
              43.393221786390569
            ],
            [
              -80.370658734152187,
              43.39327053133897
            ],
            [
              -80.370635771563968,
              43.3933198881276
            ],
            [
              -80.370615175086684,
              43.393369797123022
            ],
            [
              -80.370596969552878,
              43.393420197880864
            ],
            [
              -80.370581176637401,
              43.393471029651053
            ],
            [
              -80.370577092409107,
              43.393486660248122
            ],
            [
              -80.370573745319419,
              43.393502383866654
            ],
            [
              -80.370571139120898,
              43.393518181581889
            ],
            [
              -80.3705692772579,
              43.393534035619915
            ],
            [
              -80.370568161315191,
              43.393549926539755
            ],
            [
              -80.370567792764561,
              43.393565836268486
            ],
            [
              -80.370568172200777,
              43.393581745575766
            ],
            [
              -80.370569299319882,
              43.393597636162767
            ],
            [
              -80.370571172537581,
              43.393613489363354
            ],
            [
              -80.370573789578089,
              43.393629286507682
            ],
            [
              -80.370577147476467,
              43.393645008705924
            ],
            [
              -80.370581242370491,
              43.393660637855696
            ],
            [
              -80.370586069512001,
              43.393676155561586
            ],
            [
              -80.370591623068435,
              43.393691543206124
            ],
            [
              -80.370597896800916,
              43.393706783250103
            ],
            [
              -80.370604882797366,
              43.393721857568778
            ],
            [
              -80.370612573141869,
              43.393736748397593
            ],
            [
              -80.370620959026553,
              43.393751438255237
            ],
            [
              -80.370630030455189,
              43.393765909941941
            ],
            [
              -80.370639776344987,
              43.393780146251991
            ],
            [
              -80.370650185903372,
              43.393794130557524
            ],
            [
              -80.370661246652759,
              43.39380784679765
            ],
            [
              -80.37067294533108,
              43.393821278330968
            ],
            [
              -80.370685268664403,
              43.393834409668479
            ],
            [
              -80.370698201405361,
              43.393847225094277
            ],
            [
              -80.370711729480078,
              43.393859710051466
            ],
            [
              -80.370725836055414,
              43.39387184931963
            ],
            [
              -80.370740504677741,
              43.393883629193198
            ],
            [
              -80.370755718901563,
              43.39389503517431
            ],
            [
              -80.370771459892751,
              43.393906054480695
            ],
            [
              -80.370787709515312,
              43.393916673685766
            ],
            [
              -80.37080444873007,
              43.393926880726511
            ],
            [
              -80.370821657808534,
              43.393936663320112
            ],
            [
              -80.370839316620405,
              43.393946009829826
            ],
            [
              -80.370857404134384,
              43.39395490976657
            ],
            [
              -80.37087589942017,
              43.393963352425693
            ],
            [
              -80.370894780750461,
              43.393971327746513
            ],
            [
              -80.370914025895829,
              43.393978826457939
            ],
            [
              -80.370933611831404,
              43.393985839788854
            ],
            [
              -80.37095351631649,
              43.393992359548676
            ],
            [
              -80.370973715128116,
              43.393998378184328
            ],
            [
              -80.370994185129106,
              43.394003888220688
            ],
            [
              -80.371464643089723,
              43.394082603431521
            ],
            [
              -80.371548781236953,
              43.394095482757564
            ],
            [
              -80.371593480020891,
              43.394104008424378
            ],
            [
              -80.371637752557376,
              43.39411364396836
            ],
            [
              -80.371681547402602,
              43.394124377869694
            ],
            [
              -80.371724813516664,
              43.394136197746505
            ],
            [
              -80.371767499578894,
              43.39414908970263
            ],
            [
              -80.371809556256608,
              43.394163038628299
            ],
            [
              -80.371850934130109,
              43.394178028260761
            ],
            [
              -80.371891585075588,
              43.394194041191852
            ],
            [
              -80.37193146108568,
              43.39421105828518
            ],
            [
              -80.371970516135093,
              43.394229059767106
            ],
            [
              -80.372008703812938,
              43.394248024925311
            ],
            [
              -80.372045979704467,
              43.394267931041554
            ],
            [
              -80.372082300580132,
              43.394288755404084
            ],
            [
              -80.372117623329743,
              43.394310473284882
            ],
            [
              -80.372151906923946,
              43.394333059318988
            ],
            [
              -80.372185111432458,
              43.394356486922973
            ],
            [
              -80.372217198112949,
              43.394380729231713
            ],
            [
              -80.372248128737766,
              43.394405757365966
            ],
            [
              -80.3722778678477,
              43.394431542173542
            ],
            [
              -80.372306380091814,
              43.394458053566332
            ],
            [
              -80.372333632598099,
              43.394485260533443
            ],
            [
              -80.372359592895421,
              43.394513131489795
            ],
            [
              -80.372384231296024,
              43.394541633136775
            ],
            [
              -80.372407518501248,
              43.394570732754133
            ],
            [
              -80.372429427597694,
              43.394600396193972
            ],
            [
              -80.372449932569737,
              43.394630588448891
            ],
            [
              -80.372447000464675,
              43.394702095510269
            ],
            [
              -80.372440972544425,
              43.394770490985735
            ],
            [
              -80.372431801322307,
              43.394838700358328
            ],
            [
              -80.372419497753043,
              43.394906647041068
            ],
            [
              -80.372404074862914,
              43.394974254746195
            ],
            [
              -80.372385550821747,
              43.395041446565656
            ],
            [
              -80.372363945850879,
              43.39510814783555
            ],
            [
              -80.372339284331971,
              43.395174282833956
            ],
            [
              -80.372311594286344,
              43.395239777371536
            ],
            [
              -80.372280906892897,
              43.395304557636237
            ],
            [
              -80.372247256581218,
              43.395368550770094
            ],
            [
              -80.372210680637764,
              43.3954316847231
            ],
            [
              -80.372171221477316,
              43.395493888337562
            ],
            [
              -80.372128922493346,
              43.395555091397547
            ],
            [
              -80.372083831606048,
              43.395615225440636
            ],
            [
              -80.372035999496177,
              43.395674222595808
            ],
            [
              -80.371985480488249,
              43.39573201616443
            ],
            [
              -80.371932330565187,
              43.39578854154599
            ],
            [
              -80.371876610442413,
              43.395843735102311
            ],
            [
              -80.371818382011952,
              43.395897534138115
            ],
            [
              -80.371757711584195,
              43.395949878647727
            ],
            [
              -80.371694666844348,
              43.396000709497386
            ],
            [
              -80.37163500983749,
              43.396045809298357
            ],
            [
              -80.371199637946916,
              43.396373651679227
            ],
            [
              -80.370776444333757,
              43.396709867950435
            ],
            [
              -80.370365731530441,
              43.397054217942362
            ],
            [
              -80.369913043451774,
              43.397613833491015
            ],
            [
              -80.369340986751382,
              43.398058545991603
            ],
            [
              -80.368185629520781,
              43.398657410560638
            ],
            [
              -80.367030249694523,
              43.399256263541751
            ],
            [
              -80.365874847080605,
              43.399855104356853
            ],
            [
              -80.364570355104291,
              43.39913607154979
            ],
            [
              -80.363443110487822,
              43.398508437535959
            ],
            [
              -80.36261119291143,
              43.399366885784126
            ],
            [
              -80.361779251871511,
              43.400225327633137
            ],
            [
              -80.361765829430482,
              43.400239563605659
            ],
            [
              -80.361619660836055,
              43.400387584723383
            ],
            [
              -80.361465536126502,
              43.40053125153085
            ],
            [
              -80.361303699319734,
              43.400670336500745
            ],
            [
              -80.36113440621321,
              43.400804620095386
            ],
            [
              -80.360957924596661,
              43.400933889327327
            ],
            [
              -80.360930436348013,
              43.400953121892286
            ],
            [
              -80.359418660755622,
              43.40209537447511
            ],
            [
              -80.359314029371419,
              43.402166581444646
            ],
            [
              -80.359180571813738,
              43.402248285949355
            ],
            [
              -80.359040880373897,
              43.402324248742076
            ],
            [
              -80.358895418032475,
              43.402394216740149
            ],
            [
              -80.358744668300076,
              43.402457958228084
            ],
            [
              -80.358669548154325,
              43.402486659447717
            ],
            [
              -80.357281387855693,
              43.403055413152764
            ],
            [
              -80.357124620657117,
              43.403110006418736
            ],
            [
              -80.356974334254687,
              43.403153912713719
            ],
            [
              -80.356820594791643,
              43.403190921471435
            ],
            [
              -80.356710281303464,
              43.403212820140354
            ],
            [
              -80.356599157227706,
              43.403233137924069
            ],
            [
              -80.356044288681076,
              43.403330118939067
            ],
            [
              -80.355558648851598,
              43.403408937647832
            ],
            [
              -80.354509927383276,
              43.403591748764114
            ],
            [
              -80.353573430694567,
              43.403741187465769
            ],
            [
              -80.353054016930201,
              43.403826701617113
            ],
            [
              -80.352658005024338,
              43.403886402934852
            ],
            [
              -80.351731587198017,
              43.404045542093868
            ],
            [
              -80.351387825321268,
              43.404107918713443
            ],
            [
              -80.350806539742621,
              43.404199202179342
            ],
            [
              -80.349875620992393,
              43.404349486997795
            ],
            [
              -80.348952456311665,
              43.404508622112232
            ],
            [
              -80.34802113229749,
              43.404649405120175
            ],
            [
              -80.347428182429468,
              43.404735572755364
            ],
            [
              -80.347069967466282,
              43.403630067984473
            ],
            [
              -80.34671176540202,
              43.402524561890331
            ],
            [
              -80.346182414562008,
              43.400846313901667
            ],
            [
              -80.346082926127821,
              43.400524226276211
            ],
            [
              -80.345955450732035,
              43.400117095419972
            ],
            [
              -80.345427037959595,
              43.398466670436299
            ],
            [
              -80.345240672738583,
              43.397940005411812
            ],
            [
              -80.343667677637981,
              43.398218762577038
            ],
            [
              -80.342094668757511,
              43.398497497928915
            ],
            [
              -80.340521645306765,
              43.398776211606389
            ],
            [
              -80.338924595358193,
              43.399048819749325
            ],
            [
              -80.338453147577525,
              43.399136626406701
            ],
            [
              -80.337949080262902,
              43.399219476453354
            ],
            [
              -80.336282479350558,
              43.39951661769495
            ],
            [
              -80.334987860718087,
              43.399743141966958
            ],
            [
              -80.333693232509873,
              43.399969651510006
            ],
            [
              -80.332398594923518,
              43.400196146396944
            ],
            [
              -80.33110394776385,
              43.400422626482232
            ],
            [
              -80.329896416409568,
              43.400633378030548
            ],
            [
              -80.328688876832615,
              43.400844116765072
            ],
            [
              -80.328553489443692,
              43.400870028027455
            ],
            [
              -80.328420946201931,
              43.40090283814498
            ],
            [
              -80.328291906945864,
              43.400942383447479
            ],
            [
              -80.328167014297946,
              43.400988467317987
            ],
            [
              -80.328046891006025,
              43.401040859456423
            ],
            [
              -80.32793213516014,
              43.401099299668893
            ],
            [
              -80.327871949360173,
              43.401133657759758
            ],
            [
              -80.327356231621636,
              43.401380780734293
            ],
            [
              -80.327319803108267,
              43.401396193285464
            ],
            [
              -80.327192509762341,
              43.401444587285056
            ],
            [
              -80.327060896336192,
              43.401486388926095
            ],
            [
              -80.327002000146663,
              43.401502582506424
            ],
            [
              -80.326877004351459,
              43.401535196086243
            ],
            [
              -80.326614200823286,
              43.401598042172715
            ],
            [
              -80.326348456736511,
              43.401653929022672
            ],
            [
              -80.326278070078999,
              43.401667471621771
            ],
            [
              -80.326042124844037,
              43.40170502079804
            ],
            [
              -80.326338142453807,
              43.402609072515844
            ],
            [
              -80.326634168219314,
              43.403513123092047
            ],
            [
              -80.326930203024688,
              43.404417173036002
            ],
            [
              -80.32722624657579,
              43.40532122220182
            ],
            [
              -80.327522298676357,
              43.406225270516259
            ],
            [
              -80.327818359133445,
              43.407129317617908
            ],
            [
              -80.32811442853243,
              43.408033364230526
            ],
            [
              -80.328128288423883,
              43.408075318872918
            ],
            [
              -80.328199713594898,
              43.408309837400886
            ],
            [
              -80.328261391508917,
              43.408545821673329
            ],
            [
              -80.328313265545461,
              43.408783056490336
            ],
            [
              -80.328355287789378,
              43.409021325476047
            ],
            [
              -80.328387420516393,
              43.409260410799355
            ],
            [
              -80.328409633707793,
              43.409500094599828
            ],
            [
              -80.328421907528877,
              43.409740158281963
            ],
            [
              -80.328424230057877,
              43.409980382429758
            ],
            [
              -80.328416599540617,
              43.410220548476723
            ],
            [
              -80.328399022340861,
              43.410460436460824
            ],
            [
              -80.328380063907787,
              43.410634092357384
            ],
            [
              -80.328133448049584,
              43.411931787463644
            ],
            [
              -80.328124194893746,
              43.411984743232622
            ],
            [
              -80.328055151435777,
              43.41241202436342
            ],
            [
              -80.327995962981831,
              43.412840090894278
            ],
            [
              -80.327985189642959,
              43.412926768393909
            ],
            [
              -80.327971831324405,
              43.413543735558861
            ],
            [
              -80.327942896969816,
              43.414177938818099
            ],
            [
              -80.327903822865608,
              43.415562492195583
            ],
            [
              -80.327875144909228,
              43.416504470216346
            ],
            [
              -80.327846465980784,
              43.417446448141966
            ],
            [
              -80.327858617362367,
              43.417667543035598
            ],
            [
              -80.327859310363394,
              43.417686298440032
            ],
            [
              -80.3278719618461,
              43.41788215696279
            ],
            [
              -80.327893844073756,
              43.418073033857375
            ],
            [
              -80.327942096365021,
              43.418348330435855
            ],
            [
              -80.327966678188503,
              43.418454156768327
            ],
            [
              -80.328010834665818,
              43.41861943646083
            ],
            [
              -80.328072496038857,
              43.418815535303693
            ],
            [
              -80.328143775224774,
              43.419009894115298
            ],
            [
              -80.328224580006832,
              43.419202262732497
            ],
            [
              -80.328290634517657,
              43.419343571389547
            ],
            [
              -80.328380879358477,
              43.419492613995295
            ],
            [
              -80.32858353883762,
              43.419814255592726
            ],
            [
              -80.328720002046495,
              43.420021564493453
            ],
            [
              -80.328829259204127,
              43.420186940411263
            ],
            [
              -80.328992070233014,
              43.420404193767752
            ],
            [
              -80.329788766918995,
              43.42127255563986
            ],
            [
              -80.330043454213538,
              43.42154884189376
            ],
            [
              -80.330284966742326,
              43.421823958638839
            ],
            [
              -80.330518042714175,
              43.422102915325226
            ],
            [
              -80.330742566854866,
              43.422385574317467
            ],
            [
              -80.330922129129462,
              43.422622597988806
            ],
            [
              -80.330977470259867,
              43.422707322719319
            ],
            [
              -80.331086332811225,
              43.422886440379855
            ],
            [
              -80.331186041421489,
              43.423068367667362
            ],
            [
              -80.331243681748163,
              43.423185977309998
            ],
            [
              -80.331235447068963,
              43.423192638841591
            ],
            [
              -80.331118647592334,
              43.423283708540602
            ],
            [
              -80.330997638620502,
              43.42337180989896
            ],
            [
              -80.330872561729763,
              43.423456839640352
            ],
            [
              -80.330743563302846,
              43.423538698046471
            ],
            [
              -80.330610795317057,
              43.423617289177891
            ],
            [
              -80.330474413469105,
              43.423692520647045
            ],
            [
              -80.330334577061706,
              43.423764304914272
            ],
            [
              -80.330191450215835,
              43.423832556917738
            ],
            [
              -80.330045201046644,
              43.423897197094306
            ],
            [
              -80.330034307568795,
              43.423901814437627
            ],
            [
              -80.328551861292127,
              43.424759505518793
            ],
            [
              -80.327500797620075,
              43.425339699647139
            ],
            [
              -80.326449713430307,
              43.425919883632325
            ],
            [
              -80.325398609704337,
              43.426500058055844
            ],
            [
              -80.324160644346918,
              43.426857258079835
            ],
            [
              -80.322922664963556,
              43.427214444801102
            ],
            [
              -80.321750472837536,
              43.427692405714367
            ],
            [
              -80.320578262663631,
              43.428170354450728
            ],
            [
              -80.31940603424421,
              43.428648291008422
            ],
            [
              -80.318233787086029,
              43.429126215311911
            ],
            [
              -80.317061521978147,
              43.42960412750935
            ],
            [
              -80.315889238529337,
              43.430082027237638
            ],
            [
              -80.314716936337859,
              43.430559915070049
            ],
            [
              -80.313287987979123,
              43.431268633893559
            ],
            [
              -80.311826938976083,
              43.432167084281815
            ],
            [
              -80.310628932815135,
              43.432789647653166
            ],
            [
              -80.309430901675057,
              43.433412198308687
            ],
            [
              -80.30872612893404,
              43.434182425296129
            ],
            [
              -80.30802133824902,
              43.434952647427188
            ],
            [
              -80.30731652951367,
              43.435722865277107
            ],
            [
              -80.306611702928038,
              43.436493078558669
            ],
            [
              -80.305906858394891,
              43.437263287054797
            ],
            [
              -80.305201995809512,
              43.43803349119672
            ],
            [
              -80.304497115371177,
              43.438803690769248
            ],
            [
              -80.303792216881263,
              43.439573885770777
            ],
            [
              -80.3030873005399,
              43.440344075914048
            ],
            [
              -80.302382366240693,
              43.441114261774381
            ],
            [
              -80.301677413886395,
              43.441884443134732
            ],
            [
              -80.300972443678759,
              43.44265461956374
            ],
            [
              -80.300267455411714,
              43.443424791708168
            ],
            [
              -80.29924462542543,
              43.444393790088483
            ],
            [
              -80.299172439596362,
              43.444442341469333
            ],
            [
              -80.299125345540688,
              43.444476837264837
            ],
            [
              -80.299079912092125,
              43.444512496073649
            ],
            [
              -80.299036192935873,
              43.444549275005606
            ],
            [
              -80.298994240083601,
              43.444587130583976
            ],
            [
              -80.298954104282259,
              43.444626017595496
            ],
            [
              -80.298915832334842,
              43.4446658899382
            ],
            [
              -80.298879470271359,
              43.444706699992658
            ],
            [
              -80.298845060969612,
              43.444748399183631
            ],
            [
              -80.298812645632964,
              43.444790938421292
            ],
            [
              -80.298782262522778,
              43.444834266580735
            ],
            [
              -80.298753948317326,
              43.444878332671379
            ],
            [
              -80.298727736259252,
              43.444923083592407
            ],
            [
              -80.298703657412602,
              43.444968466589806
            ],
            [
              -80.298681741077957,
              43.445014427529934
            ],
            [
              -80.298662012708263,
              43.445060911607179
            ],
            [
              -80.298644495780323,
              43.445107863931625
            ],
            [
              -80.298629211609594,
              43.445155228447447
            ],
            [
              -80.298616177860637,
              43.445202948500054
            ],
            [
              -80.298605410609753,
              43.445250968001204
            ],
            [
              -80.29859692190017,
              43.445299229109004
            ],
            [
              -80.298590722872177,
              43.445347675128417
            ],
            [
              -80.298586819542948,
              43.445396247820106
            ],
            [
              -80.298585217818342,
              43.445444890024525
            ],
            [
              -80.298585919171444,
              43.445493543186025
            ],
            [
              -80.298592832615924,
              43.445579762276743
            ],
            [
              -80.298892387178157,
              43.446641431158334
            ],
            [
              -80.298901875500277,
              43.446665154167114
            ],
            [
              -80.298929924251198,
              43.446741384216331
            ],
            [
              -80.298954510589496,
              43.446818246246885
            ],
            [
              -80.298975607782907,
              43.446895656824296
            ],
            [
              -80.298993192865439,
              43.446973531672377
            ],
            [
              -80.299007246825312,
              43.447051786538886
            ],
            [
              -80.299017754717852,
              43.447130335971622
            ],
            [
              -80.299024704554938,
              43.447209095328581
            ],
            [
              -80.299028088812889,
              43.447287978626129
            ],
            [
              -80.299027904314613,
              43.447366900195078
            ],
            [
              -80.299024150843039,
              43.447445774888337
            ],
            [
              -80.299016832349139,
              43.447524516215275
            ],
            [
              -80.299005957114161,
              43.44760303944043
            ],
            [
              -80.298991536692725,
              43.447681258911601
            ],
            [
              -80.298973587081107,
              43.447759089651768
            ],
            [
              -80.29895212713889,
              43.447836447061363
            ],
            [
              -80.298944690837303,
              43.447860555562841
            ],
            [
              -80.298918658178764,
              43.447937164288525
            ],
            [
              -80.29888917503115,
              43.448013106702739
            ],
            [
              -80.298856273681082,
              43.448088300016096
            ],
            [
              -80.298819989364958,
              43.448162662897765
            ],
            [
              -80.298780362164308,
              43.448236114046381
            ],
            [
              -80.298737434509832,
              43.44830857426372
            ],
            [
              -80.298691253577815,
              43.448379964452528
            ],
            [
              -80.298641868993599,
              43.448450207547332
            ],
            [
              -80.298589334136878,
              43.448519226793664
            ],
            [
              -80.298533706813899,
              43.448586947481054
            ],
            [
              -80.298475047289315,
              43.448653296138524
            ],
            [
              -80.298413418681648,
              43.448718200537172
            ],
            [
              -80.298348888045069,
              43.448781590200888
            ],
            [
              -80.298281526071946,
              43.448843396476811
            ],
            [
              -80.298211405217842,
              43.448903552235485
            ],
            [
              -80.298163146518363,
              43.448942719871056
            ],
            [
              -80.297337070058305,
              43.449676823530623
            ],
            [
              -80.297328461429814,
              43.449684712882593
            ],
            [
              -80.297320231996949,
              43.449692814330845
            ],
            [
              -80.297312392055574,
              43.449701118214051
            ],
            [
              -80.297304951014382,
              43.449709614649173
            ],
            [
              -80.297297917495214,
              43.449718293388258
            ],
            [
              -80.297291299725444,
              43.449727144108842
            ],
            [
              -80.297285105938997,
              43.449736155912248
            ],
            [
              -80.297279343568903,
              43.449745318759255
            ],
            [
              -80.297274019277324,
              43.449754620877123
            ],
            [
              -80.29726913971308,
              43.449764051645502
            ],
            [
              -80.297264710345246,
              43.449773599860563
            ],
            [
              -80.297260736550754,
              43.449783253741636
            ],
            [
              -80.297257223205492,
              43.449793002081215
            ],
            [
              -80.297254174898796,
              43.449802832805631
            ],
            [
              -80.29725159433157,
              43.449812734693978
            ],
            [
              -80.2972494853055,
              43.44982269537963
            ],
            [
              -80.297247850323743,
              43.449832703640453
            ],
            [
              -80.297246691115205,
              43.449842746808876
            ],
            [
              -80.297246009003302,
              43.449852813079289
            ],
            [
              -80.297245804916784,
              43.449862890571559
            ],
            [
              -80.297246079389836,
              43.449872967331125
            ],
            [
              -80.297246831776036,
              43.449883030891904
            ],
            [
              -80.297248061022628,
              43.449893069721753
            ],
            [
              -80.297249765688107,
              43.44990307170989
            ],
            [
              -80.297251944334263,
              43.449913024457381
            ],
            [
              -80.29725459353223,
              43.449922916705603
            ],
            [
              -80.297257710558512,
              43.449932736047735
            ],
            [
              -80.297261291786441,
              43.449942471223949
            ],
            [
              -80.29726533290399,
              43.449952110393895
            ],
            [
              -80.297269828808211,
              43.44996164171237
            ],
            [
              -80.297274774283821,
              43.449971054486078
            ],
            [
              -80.297280163436881,
              43.449980336864911
            ],
            [
              -80.297285989569147,
              43.449989478146456
            ],
            [
              -80.297292246285636,
              43.449998467053817
            ],
            [
              -80.297298925599463,
              43.450007293164781
            ],
            [
              -80.297306019925813,
              43.450015945483287
            ],
            [
              -80.2973135200847,
              43.45002441415604
            ],
            [
              -80.297321417986169,
              43.450032689120391
            ],
            [
              -80.297329703565353,
              43.450040760085308
            ],
            [
              -80.297338367245899,
              43.450048617267157
            ],
            [
              -80.297347398549107,
              43.450056251957214
            ],
            [
              -80.297356786614145,
              43.450063654291881
            ],
            [
              -80.297366520661484,
              43.450070815920718
            ],
            [
              -80.297376588233362,
              43.450077728266997
            ],
            [
              -80.2973869779604,
              43.450084382688495
            ],
            [
              -80.297397677274205,
              43.450090771616274
            ],
            [
              -80.297408673312304,
              43.450096887263427
            ],
            [
              -80.297419952911483,
              43.4501027222014
            ],
            [
              -80.297431502407406,
              43.450108269574841
            ],
            [
              -80.297443308429067,
              43.450113522818334
            ],
            [
              -80.297455356811128,
              43.450118475649717
            ],
            [
              -80.297467632989395,
              43.450123122072576
            ],
            [
              -80.297480122000948,
              43.450127456376109
            ],
            [
              -80.297492809268249,
              43.450131473716418
            ],
            [
              -80.297505679818286,
              43.450135169247083
            ],
            [
              -80.297518717886234,
              43.450138538188895
            ],
            [
              -80.297531908089439,
              43.450141576917588
            ],
            [
              -80.297545234258422,
              43.450144281443862
            ],
            [
              -80.298045371753432,
              43.450292169132616
            ],
            [
              -80.298068387061676,
              43.450301427994901
            ],
            [
              -80.298090945507397,
              43.450311265517023
            ],
            [
              -80.298113019636773,
              43.450321670293256
            ],
            [
              -80.298134582313381,
              43.450332629118897
            ],
            [
              -80.298155607288095,
              43.450344129010837
            ],
            [
              -80.298176069609397,
              43.450356155913447
            ],
            [
              -80.298195943932811,
              43.450368695552527
            ],
            [
              -80.298215205725512,
              43.450381731858009
            ],
            [
              -80.298233832422781,
              43.450395249564345
            ],
            [
              -80.298251801077782,
              43.450409232251019
            ],
            [
              -80.298269089541122,
              43.450423662926163
            ],
            [
              -80.298285676958642,
              43.450438523741397
            ],
            [
              -80.298301543267044,
              43.450453796853253
            ],
            [
              -80.298316669105105,
              43.450469463558107
            ],
            [
              -80.298331036002082,
              43.450485505085759
            ],
            [
              -80.298344626387006,
              43.450501901807122
            ],
            [
              -80.298357424276645,
              43.45051863359857
            ],
            [
              -80.29836941368842,
              43.450535680264466
            ],
            [
              -80.298380580229107,
              43.450553020970567
            ],
            [
              -80.298390909900988,
              43.450570634885096
            ],
            [
              -80.298400390788217,
              43.450588500684724
            ],
            [
              -80.298409010690904,
              43.450606595963876
            ],
            [
              -80.29841675967053,
              43.450624899411359
            ],
            [
              -80.298423628198222,
              43.450643388493859
            ],
            [
              -80.298429607631476,
              43.450662040971636
            ],
            [
              -80.298434690919692,
              43.450680833750326
            ],
            [
              -80.298438871895385,
              43.450699744317127
            ],
            [
              -80.298442145188687,
              43.450718749587949
            ],
            [
              -80.298444507706947,
              43.45073782620446
            ],
            [
              -80.298445955263347,
              43.450756951377841
            ],
            [
              -80.298446487335823,
              43.450776101765499
            ],
            [
              -80.298446102215919,
              43.450795254017571
            ],
            [
              -80.29844480135894,
              43.4508143848035
            ],
            [
              -80.298442585425917,
              43.450833471076045
            ],
            [
              -80.298439457951801,
              43.450852489229248
            ],
            [
              -80.2984354221649,
              43.450871416519696
            ],
            [
              -80.298430482779892,
              43.45089022992493
            ],
            [
              -80.298424646492265,
              43.450908906146502
            ],
            [
              -80.29840737503315,
              43.45136982648588
            ],
            [
              -80.298412423191735,
              43.451384503240043
            ],
            [
              -80.298416776767723,
              43.451399297688027
            ],
            [
              -80.298420430227637,
              43.451414192363458
            ],
            [
              -80.298423379619948,
              43.451429169809593
            ],
            [
              -80.298425621098701,
              43.451444211994065
            ],
            [
              -80.298427152096451,
              43.451459301468667
            ],
            [
              -80.298427970840166,
              43.451474420501818
            ],
            [
              -80.298428076355165,
              43.451489550718584
            ],
            [
              -80.298427468836593,
              43.451504675191877
            ],
            [
              -80.298426148106586,
              43.451519775047316
            ],
            [
              -80.298424116735674,
              43.451534833156302
            ],
            [
              -80.298421376513417,
              43.451549831520907
            ],
            [
              -80.298417931303135,
              43.451564752372128
            ],
            [
              -80.298413784269428,
              43.451579578512856
            ],
            [
              -80.298408940860099,
              43.451594291967609
            ],
            [
              -80.298403406512946,
              43.451608875625276
            ],
            [
              -80.298397188349938,
              43.451623312096928
            ],
            [
              -80.298390293090904,
              43.451637584567415
            ],
            [
              -80.298382729040924,
              43.451651675943204
            ],
            [
              -80.298374505289473,
              43.451665569711807
            ],
            [
              -80.298365630922689,
              43.451679249648869
            ],
            [
              -80.298356117399592,
              43.451692699544559
            ],
            [
              -80.298345975487209,
              43.451705903184838
            ],
            [
              -80.298335216829088,
              43.451718845513582
            ],
            [
              -80.298323854261042,
              43.451731510977709
            ],
            [
              -80.298311901795444,
              43.451743884895812
            ],
            [
              -80.298299372558986,
              43.451755952220836
            ],
            [
              -80.298286282337088,
              43.451767698858561
            ],
            [
              -80.298272645922339,
              43.451779111068724
            ],
            [
              -80.298258479093619,
              43.451790175333365
            ],
            [
              -80.298243799502458,
              43.451800878650175
            ],
            [
              -80.298228623906525,
              43.451811208371545
            ],
            [
              -80.2982129702458,
              43.451821152217356
            ],
            [
              -80.298196856845721,
              43.451830698774202
            ],
            [
              -80.298180303320493,
              43.451839836348512
            ],
            [
              -80.298163328578909,
              43.451848554394914
            ],
            [
              -80.298145953012849,
              43.451856842377197
            ],
            [
              -80.298128196605461,
              43.45186469090914
            ],
            [
              -80.298110081023211,
              43.451872090398822
            ],
            [
              -80.298091627028541,
              43.451879032473379
            ],
            [
              -80.298072856970151,
              43.451885508409468
            ],
            [
              -80.298053792484581,
              43.451891511208295
            ],
            [
              -80.298034456404068,
              43.451897033085949
            ],
            [
              -80.298014871142854,
              43.451902068201015
            ],
            [
              -80.297995060308367,
              43.451906610143048
            ],
            [
              -80.297719955640275,
              43.451939714494998
            ],
            [
              -80.297711945862019,
              43.451939577994843
            ],
            [
              -80.297703934046595,
              43.451939643180388
            ],
            [
              -80.297695930275367,
              43.451939910401684
            ],
            [
              -80.297687943848743,
              43.451940379139579
            ],
            [
              -80.297679984466001,
              43.451941048589191
            ],
            [
              -80.297672061918533,
              43.451941918522564
            ],
            [
              -80.297664185216817,
              43.451942987842465
            ],
            [
              -80.297656364073489,
              43.45194425459156
            ],
            [
              -80.297648607396766,
              43.451945717960172
            ],
            [
              -80.297640925295596,
              43.451947375921399
            ],
            [
              -80.297633326393282,
              43.451949226655273
            ],
            [
              -80.297625820113339,
              43.451951267554406
            ],
            [
              -80.297618414981912,
              43.451953496654205
            ],
            [
              -80.297611120330259,
              43.451955910770408
            ],
            [
              -80.297603944294096,
              43.451958507503825
            ],
            [
              -80.297596896208034,
              43.45196128338204
            ],
            [
              -80.297589984212763,
              43.451964235573747
            ],
            [
              -80.297583216466478,
              43.451967359734908
            ],
            [
              -80.297576601111572,
              43.451970652890076
            ],
            [
              -80.297570145907429,
              43.451974110980927
            ],
            [
              -80.297563859015582,
              43.451977729375329
            ],
            [
              -80.29755774779747,
              43.451981504228634
            ],
            [
              -80.297551819229056,
              43.451985430829403
            ],
            [
              -80.297546080681755,
              43.451989504468621
            ],
            [
              -80.297540539134886,
              43.451993720146696
            ],
            [
              -80.297535201168927,
              43.451998073149795
            ],
            [
              -80.297530072978077,
              43.45200255796923
            ],
            [
              -80.297525160749871,
              43.452007169672669
            ],
            [
              -80.29752047058706,
              43.452011902102562
            ],
            [
              -80.297516008187074,
              43.452016749963313
            ],
            [
              -80.297406407690019,
              43.452924525988735
            ],
            [
              -80.297296803835138,
              43.453832302031721
            ],
            [
              -80.297187196826684,
              43.454740077517201
            ],
            [
              -80.297339190012622,
              43.455101699379284
            ],
            [
              -80.297942804210393,
              43.456559966854499
            ],
            [
              -80.298446704645343,
              43.457771395984032
            ],
            [
              -80.298950624917225,
              43.458982822847119
            ],
            [
              -80.299365017644689,
              43.4600644109317
            ],
            [
              -80.29975345191103,
              43.461040852227413
            ],
            [
              -80.300141898590809,
              43.462017292411645
            ],
            [
              -80.300511042808992,
              43.46294745472759
            ],
            [
              -80.300880198264565,
              43.46387761693142
            ],
            [
              -80.301249363695945,
              43.464807776998327
            ],
            [
              -80.301618541470717,
              43.465737935518924
            ],
            [
              -80.301987729111488,
              43.466668092982204
            ],
            [
              -80.302726140421512,
              43.46852840484766
            ],
            [
              -80.302784846316356,
              43.468591408696355
            ],
            [
              -80.303657212859278,
              43.469527627488148
            ],
            [
              -80.304529607410544,
              43.470463840597958
            ],
            [
              -80.304982269477719,
              43.47098566454509
            ],
            [
              -80.305884352265139,
              43.472018986324656
            ],
            [
              -80.306123711287313,
              43.472082761345511
            ],
            [
              -80.306796511275309,
              43.472011817955178
            ],
            [
              -80.308450525373743,
              43.471864891528874
            ],
            [
              -80.309859840345496,
              43.471751202175859
            ],
            [
              -80.311269150250965,
              43.471637495414342
            ],
            [
              -80.312678454990035,
              43.471523771243923
            ],
            [
              -80.314087754759313,
              43.471410029666011
            ],
            [
              -80.314360725569543,
              43.471379570511367
            ],
            [
              -80.314684927069962,
              43.471336687299946
            ],
            [
              -80.315007211286698,
              43.471286725116983
            ],
            [
              -80.315327287600155,
              43.471229729133064
            ],
            [
              -80.315644866207904,
              43.471165751298031
            ],
            [
              -80.315959660214276,
              43.471094849273008
            ],
            [
              -80.316271384734264,
              43.471017087001151
            ],
            [
              -80.316579758378211,
              43.470932534644263
            ],
            [
              -80.31688450176155,
              43.470841269222312
            ],
            [
              -80.316983923737084,
              43.470809788459768
            ],
            [
              -80.318744896246145,
              43.470208393510298
            ],
            [
              -80.320254438653834,
              43.469679365332148
            ],
            [
              -80.321763954820099,
              43.469150317000974
            ],
            [
              -80.323015106710798,
              43.468708692859003
            ],
            [
              -80.324266240511506,
              43.468267054944363
            ],
            [
              -80.325517356223557,
              43.467825403113601
            ],
            [
              -80.326768453845105,
              43.467383737511419
            ],
            [
              -80.327761899738249,
              43.467034950987909
            ],
            [
              -80.328225668702402,
              43.466884466528434
            ],
            [
              -80.328663628041483,
              43.466721668117536
            ],
            [
              -80.330830227418048,
              43.465957616346437
            ],
            [
              -80.332086628925637,
              43.465508984105007
            ],
            [
              -80.333343012076696,
              43.465060337902557
            ],
            [
              -80.334599376775216,
              43.464611677451011
            ],
            [
              -80.335855722914971,
              43.464163003398703
            ],
            [
              -80.336103457683777,
              43.464070438820258
            ],
            [
              -80.336346497931729,
              43.463971491947483
            ],
            [
              -80.336584533961314,
              43.46386628909157
            ],
            [
              -80.336817262422514,
              43.463754964598508
            ],
            [
              -80.337044386223909,
              43.463637659983689
            ],
            [
              -80.337265616596866,
              43.463514525096457
            ],
            [
              -80.337480671332344,
              43.463385716596719
            ],
            [
              -80.337689276353842,
              43.463251398828397
            ],
            [
              -80.337758486981087,
              43.463204641507012
            ],
            [
              -80.33864461688961,
              43.462575036800217
            ],
            [
              -80.339530728409542,
              43.461945425038273
            ],
            [
              -80.339554404766758,
              43.461930302579205
            ],
            [
              -80.339723300896225,
              43.461826087228587
            ],
            [
              -80.339762568980007,
              43.461802745931145
            ],
            [
              -80.339976994544998,
              43.46168086193957
            ],
            [
              -80.340197420882859,
              43.461564797746718
            ],
            [
              -80.340423551621498,
              43.461454709725899
            ],
            [
              -80.340655080492894,
              43.461350746487128
            ],
            [
              -80.340891695592006,
              43.461253048253475
            ],
            [
              -80.341133077101304,
              43.461161746920304
            ],
            [
              -80.341378899666054,
              43.461076965852968
            ],
            [
              -80.341628831510988,
              43.460998819233566
            ],
            [
              -80.341882534826027,
              43.460927412927951
            ],
            [
              -80.342139667362886,
              43.460862843126264
            ],
            [
              -80.342399882531126,
              43.460805196559768
            ],
            [
              -80.34266282869288,
              43.460754551649543
            ],
            [
              -80.342928151161146,
              43.460710976573203
            ],
            [
              -80.343139912306938,
              43.460681498378641
            ],
            [
              -80.344433115410482,
              43.460494496825241
            ],
            [
              -80.345726310812694,
              43.460307480373345
            ],
            [
              -80.347019498309479,
              43.460120449526272
            ],
            [
              -80.348312678104747,
              43.459933403637166
            ],
            [
              -80.349605850091038,
              43.459746343426119
            ],
            [
              -80.350899014176292,
              43.459559268172441
            ],
            [
              -80.352192170549756,
              43.459372178597896
            ],
            [
              -80.352276739169909,
              43.45935895174631
            ],
            [
              -80.352453727030024,
              43.459325791604606
            ],
            [
              -80.35262796411098,
              43.459285640300266
            ],
            [
              -80.352798931098619,
              43.459238617438288
            ],
            [
              -80.35296611765655,
              43.459184863639564
            ],
            [
              -80.353129024518609,
              43.459124539111791
            ],
            [
              -80.353287165856742,
              43.45905782423889
            ],
            [
              -80.353440069204069,
              43.458984917563271
            ],
            [
              -80.353517624988328,
              43.458944486806416
            ],
            [
              -80.353657720078843,
              43.458873185556037
            ],
            [
              -80.35378493922741,
              43.458797918655229
            ],
            [
              -80.353810450640594,
              43.458780956043469
            ],
            [
              -80.353946192732877,
              43.458684874425472
            ],
            [
              -80.354074784004894,
              43.458583707839573
            ],
            [
              -80.354195866245078,
              43.458477738897827
            ],
            [
              -80.354280211936029,
              43.458396625023575
            ],
            [
              -80.355219705163492,
              43.457442768361012
            ],
            [
              -80.356159168865204,
              43.456488903707246
            ],
            [
              -80.356165415089734,
              43.456482868897453
            ],
            [
              -80.356339099835722,
              43.456321330677277
            ],
            [
              -80.356520544367527,
              43.456164384018521
            ],
            [
              -80.356709520017645,
              43.456012227496025
            ],
            [
              -80.356905788517736,
              43.455865051994962
            ],
            [
              -80.357109102661141,
              43.455723043524038
            ],
            [
              -80.357319206332448,
              43.455586380406643
            ],
            [
              -80.357535834683446,
              43.455455235371026
            ],
            [
              -80.357655051663713,
              43.455386982570126
            ],
            [
              -80.357782978720252,
              43.455321212779225
            ],
            [
              -80.358015873639189,
              43.455208378067809
            ],
            [
              -80.358254118087288,
              43.455101635391451
            ],
            [
              -80.358497411959931,
              43.455001119468271
            ],
            [
              -80.35874544872452,
              43.454906956410014
            ],
            [
              -80.358997916198163,
              43.45481926495119
            ],
            [
              -80.359254495858991,
              43.454738156085234
            ],
            [
              -80.359514864943492,
              43.454663731059391
            ],
            [
              -80.359657985527292,
              43.454626083637017
            ],
            [
              -80.360943587066714,
              43.45428302434199
            ],
            [
              -80.362229174217802,
              43.453939950481519
            ],
            [
              -80.363514747078867,
              43.453596862056656
            ],
            [
              -80.364800305451539,
              43.453253759066811
            ],
            [
              -80.366511447836999,
              43.452770100416245
            ],
            [
              -80.367876036907703,
              43.452385816887301
            ],
            [
              -80.369240608857382,
              43.452001517013109
            ],
            [
              -80.370605163686932,
              43.451617200650269
            ],
            [
              -80.371969701493043,
              43.451232867944043
            ],
            [
              -80.37211134289123,
              43.451189523273122
            ],
            [
              -80.372362231864287,
              43.451106625688716
            ],
            [
              -80.372608848337762,
              43.451017182390707
            ],
            [
              -80.37285087107665,
              43.450921310574927
            ],
            [
              -80.373087984409381,
              43.450819135105654
            ],
            [
              -80.373319879114362,
              43.450710788880421
            ],
            [
              -80.37354625280679,
              43.450596413696381
            ],
            [
              -80.373766809957459,
              43.450476158449334
            ],
            [
              -80.373981263762744,
              43.45035018000813
            ],
            [
              -80.374189333876572,
              43.450218642625849
            ],
            [
              -80.374390749280167,
              43.450081717738996
            ],
            [
              -80.374585247685815,
              43.449939584252348
            ],
            [
              -80.37477257485827,
              43.449792427238222
            ],
            [
              -80.374813239009612,
              43.449759034125272
            ],
            [
              -80.375933318395511,
              43.448834387694092
            ],
            [
              -80.377053363717465,
              43.447909730006586
            ],
            [
              -80.37721196238445,
              43.447777408682214
            ],
            [
              -80.377398793776237,
              43.447631880381238
            ],
            [
              -80.377592753861364,
              43.447491390405055
            ],
            [
              -80.377793587335432,
              43.447356124044333
            ],
            [
              -80.378001028392589,
              43.447226259833755
            ],
            [
              -80.378214803995107,
              43.447101968849957
            ],
            [
              -80.37843463239129,
              43.446983414631397
            ],
            [
              -80.378660223003877,
              43.446870754402667
            ],
            [
              -80.378891278836377,
              43.446764135774245
            ],
            [
              -80.379127495254181,
              43.446663699905486
            ],
            [
              -80.379368560500623,
              43.446569579346715
            ],
            [
              -80.37961415688676,
              43.446481897685651
            ],
            [
              -80.379841890542792,
              43.44640762115386
            ],
            [
              -80.380975916166008,
              43.446005373005065
            ],
            [
              -80.382109927253055,
              43.445603113492687
            ],
            [
              -80.383243923012088,
              43.445200842685011
            ],
            [
              -80.384377904235293,
              43.444798560442692
            ],
            [
              -80.385511870130799,
              43.444396266833955
            ],
            [
              -80.386645821489381,
              43.443993961863541
            ],
            [
              -80.387779757519866,
              43.443591645527647
            ],
            [
              -80.388379233927552,
              43.444493063497916
            ],
            [
              -80.38897872812214,
              43.445394478290488
            ],
            [
              -80.389578239907053,
              43.446295889904
            ],
            [
              -80.390177769381538,
              43.44719729841075
            ],
            [
              -80.39034234924604,
              43.447547683911758
            ],
            [
              -80.390395410805084,
              43.447698731991402
            ],
            [
              -80.390438698718825,
              43.447851425384997
            ],
            [
              -80.390472116823133,
              43.448005428410227
            ],
            [
              -80.390495590713797,
              43.448160404273679
            ],
            [
              -80.390509066402871,
              43.448316011101817
            ],
            [
              -80.390512520142522,
              43.448471908332223
            ],
            [
              -80.390503244384661,
              43.448850167997868
            ],
            [
              -80.391710385654278,
              43.449897597102137
            ],
            [
              -80.392000022702703,
              43.450359300502669
            ],
            [
              -80.392701726762553,
              43.448855052288891
            ],
            [
              -80.393317091106425,
              43.44775348405858
            ],
            [
              -80.394616464081096,
              43.44683922442993
            ],
            [
              -80.395760503768088,
              43.446255040096048
            ],
            [
              -80.396904521400245,
              43.445670844198091
            ],
            [
              -80.398770845540213,
              43.444775732970243
            ],
            [
              -80.400561290531371,
              43.444050376762476
            ],
            [
              -80.401113661680697,
              43.443677789379329
            ],
            [
              -80.401680562004103,
              43.443334989373362
            ],
            [
              -80.402287575286607,
              43.442695252783878
            ],
            [
              -80.403040432547272,
              43.441963978604868
            ],
            [
              -80.403775543953444,
              43.441414495583977
            ],
            [
              -80.404831795641755,
              43.440793383847478
            ],
            [
              -80.405847873544189,
              43.440279926206642
            ],
            [
              -80.406374312675666,
              43.440066462072096
            ],
            [
              -80.406966922075654,
              43.43977367490281
            ],
            [
              -80.40761043110777,
              43.439418650827996
            ],
            [
              -80.408172886276375,
              43.438992744256616
            ],
            [
              -80.408803331695054,
              43.438528496056747
            ],
            [
              -80.409343844994183,
              43.438058698248788
            ],
            [
              -80.409732816915593,
              43.43762639222674
            ],
            [
              -80.410041631531413,
              43.437130298924927
            ],
            [
              -80.410201816172489,
              43.436721696780765
            ],
            [
              -80.410309003618366,
              43.436318583799306
            ],
            [
              -80.410337963493177,
              43.435908742177688
            ],
            [
              -80.410302124597536,
              43.435500049665116
            ],
            [
              -80.410098736556634,
              43.434906933813366
            ],
            [
              -80.409847858649059,
              43.434328384133181
            ],
            [
              -80.409647920637255,
              43.433942514406766
            ],
            [
              -80.409458417256175,
              43.433699252734229
            ],
            [
              -80.408876804966141,
              43.433095127320769
            ],
            [
              -80.408245079317197,
              43.432763190032496
            ],
            [
              -80.407471497070986,
              43.432374294677757
            ],
            [
              -80.40659939731465,
              43.431850329445808
            ],
            [
              -80.405873522306067,
              43.431383039589136
            ],
            [
              -80.405205888442396,
              43.43088412322377
            ],
            [
              -80.404645158788014,
              43.430414383405655
            ],
            [
              -80.40392937651896,
              43.429913481202099
            ],
            [
              -80.403371840595796,
              43.429545714200863
            ],
            [
              -80.402754304124031,
              43.429166814379698
            ],
            [
              -80.402499110893515,
              43.428783371380113
            ],
            [
              -80.402316610746482,
              43.428321330816246
            ],
            [
              -80.402192508365729,
              43.427875351873283
            ],
            [
              -80.401914379489739,
              43.426371965404748
            ],
            [
              -80.402121066968476,
              43.425330338235305
            ],
            [
              -80.40226451754009,
              43.424688173921993
            ],
            [
              -80.402722946583381,
              43.424050356553778
            ],
            [
              -80.403246986058079,
              43.423523634003338
            ],
            [
              -80.403945081110081,
              43.423022128489748
            ],
            [
              -80.405180166483859,
              43.422534218372938
            ],
            [
              -80.406280043547937,
              43.422240087986452
            ],
            [
              -80.407701582649537,
              43.422023249277061
            ],
            [
              -80.408863886483886,
              43.421786145243942
            ],
            [
              -80.409653968034632,
              43.421714589727195
            ],
            [
              -80.409505852746491,
              43.421434777997156
            ],
            [
              -80.409232152344757,
              43.420883106510509
            ],
            [
              -80.409166578172687,
              43.420766610086204
            ],
            [
              -80.409053354061655,
              43.420595842166293
            ],
            [
              -80.408920329877688,
              43.420428573576714
            ],
            [
              -80.408774763404324,
              43.420281049096793
            ],
            [
              -80.408631472985292,
              43.420153346391793
            ],
            [
              -80.408458765755981,
              43.420014686049001
            ],
            [
              -80.408289521897032,
              43.419876042282581
            ],
            [
              -80.408113014549144,
              43.419734660191722
            ],
            [
              -80.407013303595576,
              43.418878047258026
            ],
            [
              -80.406275762129013,
              43.418291455372163
            ],
            [
              -80.405038737889157,
              43.417309309561134
            ],
            [
              -80.404532261917964,
              43.416900207837735
            ],
            [
              -80.404277247910983,
              43.416723785640627
            ],
            [
              -80.40400666723518,
              43.416560152378437
            ],
            [
              -80.403716156900231,
              43.416399071235858
            ],
            [
              -80.403431282758618,
              43.416246237679275
            ],
            [
              -80.403146000006046,
              43.41613515178819
            ],
            [
              -80.402810604901717,
              43.41602380342735
            ],
            [
              -80.402496533514665,
              43.415928223128724
            ],
            [
              -80.402139459001674,
              43.41583763477793
            ],
            [
              -80.399831709911638,
              43.415361064350044
            ],
            [
              -80.398555318975852,
              43.41511714833949
            ],
            [
              -80.397278938134747,
              43.414873218418862
            ],
            [
              -80.396002567987637,
              43.414629274015354
            ],
            [
              -80.394544373763736,
              43.414337633080443
            ],
            [
              -80.393086193237096,
              43.41404597332884
            ],
            [
              -80.391628027391135,
              43.413754295342656
            ],
            [
              -80.390938207961781,
              43.413625941332874
            ],
            [
              -80.38948666389058,
              43.413335969903713
            ],
            [
              -80.388035133863639,
              43.413045980117907
            ],
            [
              -80.386822729414817,
              43.41280342433091
            ],
            [
              -80.385610334679669,
              43.412560855737212
            ],
            [
              -80.384397949857131,
              43.412318274266219
            ],
            [
              -80.383185574847573,
              43.412075680061754
            ],
            [
              -80.382590659849285,
              43.411977222601536
            ],
            [
              -80.382033795676719,
              43.410673781428116
            ],
            [
              -80.382436648560585,
              43.410675756827217
            ],
            [
              -80.381731183633065,
              43.40886734295978
            ],
            [
              -80.38137846669872,
              43.407963134383536
            ],
            [
              -80.380989306721972,
              43.4069235458363
            ],
            [
              -80.38082004304114,
              43.406374094094716
            ],
            [
              -80.380600159860236,
              43.405883956649319
            ],
            [
              -80.380053953923877,
              43.405918933052845
            ],
            [
              -80.379547579115169,
              43.404627445185426
            ],
            [
              -80.379170410853632,
              43.403668840694031
            ],
            [
              -80.378793253837458,
              43.402710234507929
            ],
            [
              -80.37841610904708,
              43.401751627280888
            ],
            [
              -80.379410958026426,
              43.401197666636968
            ],
            [
              -80.380405788522751,
              43.400643697172363
            ],
            [
              -80.381400601326717,
              43.40008971889187
            ],
            [
              -80.382194095309103,
              43.399637010871608
            ],
            [
              -80.382596704734894,
              43.39942355256381
            ],
            [
              -80.383089584002789,
              43.399152477746263
            ],
            [
              -80.38478338110481,
              43.398222439743854
            ],
            [
              -80.385259680596761,
              43.397939805234294
            ],
            [
              -80.385517298600888,
              43.397815783486401
            ],
            [
              -80.386690808313645,
              43.397164758967989
            ],
            [
              -80.387864293346979,
              43.396513722544569
            ],
            [
              -80.389037752918455,
              43.395862673492424
            ],
            [
              -80.390175222376868,
              43.395231230528964
            ],
            [
              -80.391312668267162,
              43.39459977596875
            ],
            [
              -80.392450090589122,
              43.393968309884592
            ],
            [
              -80.393589855943446,
              43.393336844898393
            ],
            [
              -80.394729597781762,
              43.392705368270811
            ],
            [
              -80.396657855876825,
              43.391628722068226
            ],
            [
              -80.397684874355377,
              43.391058661528248
            ],
            [
              -80.398161076577537,
              43.39083382087302
            ],
            [
              -80.399744056231086,
              43.389885685553111
            ],
            [
              -80.401192363209304,
              43.38882925832803
            ],
            [
              -80.402492134103454,
              43.387674656007661
            ],
            [
              -80.403630931227681,
              43.386432936372117
            ],
            [
              -80.404597857639942,
              43.385115989245563
            ],
            [
              -80.405097603324066,
              43.384202618283574
            ],
            [
              -80.405597334365623,
              43.383289245267179
            ],
            [
              -80.406097049784321,
              43.382375869543147
            ],
            [
              -80.406764068811682,
              43.381226041314648
            ],
            [
              -80.407339338489308,
              43.380166287561714
            ],
            [
              -80.407914587857562,
              43.379106530673873
            ],
            [
              -80.408771055506875,
              43.377609016503527
            ],
            [
              -80.408856446033909,
              43.377459983187336
            ],
            [
              -80.409343500381453,
              43.376586103013729
            ],
            [
              -80.409830540231354,
              43.37571222047729
            ],
            [
              -80.410317566373138,
              43.374838335726302
            ],
            [
              -80.410804578413348,
              43.373964448686927
            ],
            [
              -80.411291575958629,
              43.373090559285259
            ],
            [
              -80.411778559798435,
              43.372216667669626
            ],
            [
              -80.412454105707155,
              43.371003629825616
            ],
            [
              -80.413081717491991,
              43.369962611789205
            ],
            [
              -80.412276299413278,
              43.370103649393648
            ],
            [
              -80.408587852058503,
              43.370767013562222
            ],
            [
              -80.407364372936271,
              43.370994235601103
            ],
            [
              -80.402362951356537,
              43.371855241831447
            ],
            [
              -80.394408765163618,
              43.373215626463825
            ],
            [
              -80.379652316028526,
              43.375791093818783
            ],
            [
              -80.367428983690317,
              43.37800089236999
            ],
            [
              -80.367401739473621,
              43.378006469419724
            ]
          ]
        ]
      }
    }
  ]
}
